NORAD_CAT_ID,OBJECT_NAME,OBJECT_TYPE,EPOCH,MEAN_MOTION,ECCENTRICITY,INCLINATION,RA_OF_ASC_NODE,ARG_OF_PERICENTER,MEAN_ANOMALY,BSTAR,MEAN_MOTION_DOT,MEAN_MOTION_DDOT,TLE_LINE0,TLE_LINE1,TLE_LINE2,SEMIMAJOR_AXIS,PERIOD,APOGEE,PERIGEE,DECAYED
55789.0,STARLINK-5815,PAYLOAD,2023-04-01 02:29:31,15.69998142,0.0002364,70.0018,75.4886,242.2248,117.8708,0.00024002,0.00028831,0.0,0 STARLINK-5815,1 55789U 23028BA  23091.10384024  .00028831  00000-0  24002-3 0  9999,2 55789  70.0018  75.4886 0002364 242.2248 117.8708 15.69998142  5112,6737.039,91.72,360.497,357.312,0.0
55789.0,STARLINK-5815,PAYLOAD,2023-04-01 08:36:34,15.69912033,0.0002183,70.0014,74.7714,282.6288,77.4664,-1.2663e-05,-1.733e-05,0.0,0 STARLINK-5815,1 55789U 23028BA  23091.35873586 -.00001733  00000-0 -12663-4 0  9997,2 55789  70.0014  74.7714 0002183 282.6288  77.4664 15.69912033  5152,6737.286,91.725,360.621,357.68,0.0
55789.0,STARLINK-5815,PAYLOAD,2023-04-02 01:25:50,15.69934976,0.0003183,69.9998,72.7984,275.0248,85.0585,5.4897e-05,6.396e-05,0.0,0 STARLINK-5815,1 55789U 23028BA  23092.05960819  .00006396  00000-0  54897-4 0  9994,2 55789  69.9998  72.7984 0003183 275.0248  85.0585 15.69934976  5269,6737.22,91.724,361.229,356.941,0.0
55789.0,STARLINK-5815,PAYLOAD,2023-04-02 10:36:20,15.69932153,0.0003307,70.0004,71.7252,270.2202,89.8614,3.5548e-05,4.065e-05,0.0,0 STARLINK-5815,1 55789U 23028BA  23092.44190648  .00004065  00000-0  35548-4 0  9995,2 55789  70.0004  71.7252 0003307 270.2202  89.8614 15.69932153  5330,6737.228,91.724,361.321,356.865,0.0
55789.0,STARLINK-5815,PAYLOAD,2023-04-03 01:53:52,15.69919447,0.0003081,70.0017,69.9352,269.057,91.0273,-1.0479e-05,-1.472e-05,0.0,0 STARLINK-5815,1 55789U 23028BA  23093.07907909 -.00001472  00000-0 -10479-4 0  9998,2 55789  70.0017  69.9352 0003081 269.0570  91.0273 15.69919447  5424,6737.264,91.724,361.205,357.054,0.0
55789.0,STARLINK-5815,PAYLOAD,2023-04-03 08:00:52,15.69927534,0.0002855,70.001,69.2164,255.309,104.7789,2.3267e-05,2.586e-05,0.0,0 STARLINK-5815,1 55789U 23028BA  23093.33394413  .00002586  00000-0  23267-4 0  9991,2 55789  70.0010  69.2164 0002855 255.3090 104.7789 15.69927534  5479,6737.241,91.724,361.03,357.183,0.0
55789.0,STARLINK-5815,PAYLOAD,2023-04-03 15:39:38,15.69932064,0.0003408,69.9999,68.3208,268.5787,91.5019,3.7728e-05,4.328e-05,0.0,0 STARLINK-5815,1 55789U 23028BA  23093.65252613  .00004328  00000-0  37728-4 0  9994,2 55789  69.9999  68.3208 0003408 268.5787  91.5019 15.69932064  5513,6737.228,91.724,361.389,356.797,0.0
55789.0,STARLINK-5815,PAYLOAD,2023-04-04 06:57:09,15.69928017,0.0003633,70.0018,66.5297,267.4278,92.6502,2.3894e-05,2.662e-05,0.0,0 STARLINK-5815,1 55789U 23028BA  23094.28969211  .00002662  00000-0  23894-4 0  9991,2 55789  70.0018  66.5297 0003633 267.4278  92.6502 15.69928017  5612,6737.24,91.724,361.553,356.657,0.0
55789.0,STARLINK-5815,PAYLOAD,2023-04-05 01:18:11,15.69911884,0.0003421,70.0011,64.3802,264.716,95.3645,-1.1147e-05,-1.552e-05,0.0,0 STARLINK-5815,1 55789U 23028BA  23095.05430392 -.00001552  00000-0 -11147-4 0  9997,2 55789  70.0011  64.3802 0003421 264.7160  95.3645 15.69911884  5733,6737.286,91.725,361.456,356.846,0.0
55789.0,STARLINK-5815,PAYLOAD,2023-04-05 10:28:40,15.69949444,0.0003124,69.9986,63.3046,265.7672,94.3167,3.3476e-05,3.818e-05,0.0,0 STARLINK-5815,1 55789U 23028BA  23095.43657900  .00003818  00000-0  33476-4 0  9999,2 55789  69.9986  63.3046 0003124 265.7672  94.3167 15.69949444  5796,6737.179,91.723,361.148,356.939,0.0
55789.0,STARLINK-5815,PAYLOAD,2023-04-06 00:14:28,15.69920033,0.0003514,70.0005,61.6944,265.6915,94.388,-2.5394e-06,-5.18e-06,0.0,0 STARLINK-5815,1 55789U 23028BA  23096.01005234 -.00000518  00000-0 -25394-5 0  9998,2 55789  70.0005  61.6944 0003514 265.6915  94.3880 15.69920033  5886,6737.263,91.724,361.495,356.76,0.0
55789.0,STARLINK-5815,PAYLOAD,2023-04-06 07:53:13,15.6993579,0.0003278,69.9961,60.7919,257.6327,102.4502,-6.8118e-06,-1.032e-05,0.0,0 STARLINK-5815,1 55789U 23028BA  23096.32862375 -.00001032  00000-0 -68118-5 0  9992,2 55789  69.9961  60.7919 0003278 257.6327 102.4502 15.69935790  5935,6737.218,91.723,361.291,356.874,0.0
55789.0,STARLINK-5815,PAYLOAD,2023-04-06 21:39:00,15.69921909,0.0003331,69.9977,59.1823,255.0655,105.0172,4.1039e-07,-1.63e-06,0.0,0 STARLINK-5815,1 55789U 23028BA  23096.90208572 -.00000163  00000-0  41039-6 0  9996,2 55789  69.9977  59.1823 0003331 255.0655 105.0172 15.69921909  6035,6737.257,91.724,361.367,356.878,0.0
55789.0,STARLINK-5815,PAYLOAD,2023-04-07 00:42:31,15.69904161,0.0003373,69.999,58.8264,261.792,98.2894,-1.4113e-05,-1.908e-05,0.0,0 STARLINK-5815,1 55789U 23028BA  23097.02953376 -.00001908  00000-0 -14113-4 0  9999,2 55789  69.9990  58.8264 0003373 261.7920  98.2894 15.69904161  6046,6737.308,91.725,361.446,356.901,0.0
55789.0,STARLINK-5815,PAYLOAD,2023-04-07 06:49:30,15.69905622,0.00034,69.9979,58.1096,265.2753,94.8054,5.8184e-05,6.784e-05,0.0,0 STARLINK-5815,1 55789U 23028BA  23097.28438601  .00006784  00000-0  58184-4 0  9997,2 55789  69.9979  58.1096 0003400 265.2753  94.8054 15.69905622  6080,6737.304,91.725,361.46,356.878,0.0
55789.0,STARLINK-5815,PAYLOAD,2023-04-07 23:38:47,15.699227,0.0003126,69.9991,56.1391,249.5685,110.5175,2.1191e-06,4.2e-07,0.0,0 STARLINK-5815,1 55789U 23028BA  23097.98526969  .00000042  00000-0  21191-5 0  9999,2 55789  69.9991  56.1391 0003126 249.5685 110.5175 15.69922700  6192,6737.255,91.724,361.226,357.014,0.0
55789.0,STARLINK-5815,PAYLOAD,2023-04-08 07:17:32,15.69925418,0.0003317,69.9985,55.2429,249.0509,111.0332,2.237e-06,5.6e-07,0.0,0 STARLINK-5815,1 55789U 23028BA  23098.30385113  .00000056  00000-0  22370-5 0  9995,2 55789  69.9985  55.2429 0003317 249.0509 111.0332 15.69925418  6256,6737.247,91.724,361.347,356.878,0.0
55789.0,STARLINK-5815,PAYLOAD,2023-04-09 03:10:19,15.69924714,0.0003551,69.9993,52.9159,269.1665,90.9124,-1.6164e-06,-4.07e-06,0.0,0 STARLINK-5815,1 55789U 23028BA  23099.13217002 -.00000407  00000-0 -16164-5 0  9994,2 55789  69.9993  52.9159 0003551 269.1665  90.9124 15.69924714  6370,6737.249,91.724,361.507,356.722,0.0
55789.0,STARLINK-5815,PAYLOAD,2023-04-09 07:45:34,15.69938798,0.000334,69.9991,52.3772,266.8697,93.2117,-1.7995e-05,-2.377e-05,0.0,0 STARLINK-5815,1 55789U 23028BA  23099.32331272 -.00002377  00000-0 -17995-4 0  9991,2 55789  69.9991  52.3772 0003340 266.8697  93.2117 15.69938798  6407,6737.209,91.723,361.324,356.824,0.0
55789.0,STARLINK-5815,PAYLOAD,2023-04-09 23:03:06,15.69921718,0.0003362,69.9995,50.5855,264.0043,96.077,7.0239e-06,6.32e-06,0.0,0 STARLINK-5815,1 55789U 23028BA  23099.96048693  .00000632  00000-0  70239-5 0  9994,2 55789  69.9995  50.5855 0003362 264.0043  96.0770 15.69921718  6503,6737.258,91.724,361.388,356.858,0.0
55789.0,STARLINK-5815,PAYLOAD,2023-04-10 08:13:36,15.69928656,0.0003139,70.0001,49.512,262.625,97.4589,1.2808e-05,1.328e-05,0.0,0 STARLINK-5815,1 55789U 23028BA  23100.34278252  .00001328  00000-0  12808-4 0  9995,2 55789  70.0001  49.5120 0003139 262.6250  97.4589 15.69928656  6571,6737.238,91.724,361.218,356.988,0.0
55789.0,STARLINK-5815,PAYLOAD,2023-04-10 20:27:37,15.69922905,0.0003484,69.9992,48.0776,265.7004,94.3793,8.4495e-06,8.03e-06,0.0,0 STARLINK-5815,1 55789U 23028BA  23100.85251766  .00000803  00000-0  84495-5 0  9991,2 55789  69.9992  48.0776 0003484 265.7004  94.3793 15.69922905  6655,6737.255,91.724,361.467,356.772,0.0
55789.0,STARLINK-5815,PAYLOAD,2023-04-11 02:34:37,15.69951122,0.0002881,69.999,47.3627,259.9988,100.0883,-5.7375e-05,-7.113e-05,0.0,0 STARLINK-5815,1 55789U 23028BA  23101.10738094 -.00007113  00000-0 -57375-4 0  9993,2 55789  69.9990  47.3627 0002881 259.9988 100.0883 15.69951122  6687,6737.174,91.723,360.98,357.098,0.0
55789.0,STARLINK-5815,PAYLOAD,2023-04-11 07:09:53,15.69932051,0.0002576,69.9999,46.8257,270.7419,89.3482,-3.5774e-05,-4.512e-05,0.0,0 STARLINK-5815,1 55789U 23028BA  23101.29853891 -.00004512  00000-0 -35774-4 0  9995,2 55789  69.9999  46.8257 0002576 270.7419  89.3482 15.69932051  6718,6737.228,91.724,360.829,357.358,0.0
55789.0,STARLINK-5815,PAYLOAD,2023-04-12 07:37:56,15.69918858,0.0002867,70.0003,43.9582,269.0522,91.0345,-9.1263e-06,-1.309e-05,0.0,0 STARLINK-5815,1 55789U 23028BA  23102.31801023 -.00001309  00000-0 -91263-5 0  9996,2 55789  70.0003  43.9582 0002867 269.0522  91.0345 15.69918858  6879,6737.266,91.724,361.063,357.2,0.0
55789.0,STARLINK-5815,PAYLOAD,2023-04-12 13:44:56,15.69915786,0.0002774,70.0005,43.2418,277.3032,82.7848,1.3742e-06,-4.7e-07,0.0,0 STARLINK-5815,1 55789U 23028BA  23102.57287840 -.00000047  00000-0  13742-5 0  9992,2 55789  70.0005  43.2418 0002774 277.3032  82.7848 15.69915786  6925,6737.275,91.725,361.009,357.271,0.0
55789.0,STARLINK-5815,PAYLOAD,2023-04-13 06:34:13,15.69915098,0.0001684,70.0005,41.2716,290.1431,69.9584,1.9434e-05,2.124e-05,0.0,0 STARLINK-5815,1 55789U 23028BA  23103.27376305  .00002124  00000-0  19434-4 0  9995,2 55789  70.0005  41.2716 0001684 290.1431  69.9584 15.69915098  7032,6737.277,91.725,360.276,358.007,0.0
55789.0,STARLINK-5815,PAYLOAD,2023-04-14 02:26:58,15.69934199,0.000322,70.0005,38.945,258.4875,101.5959,1.4318e-05,1.51e-05,0.0,0 STARLINK-5815,1 55789U 23028BA  23104.10206676  .00001510  00000-0  14318-4 0  9995,2 55789  70.0005  38.9450 0003220 258.4875 101.5959 15.69934199  7152,6737.222,91.724,361.257,356.918,0.0
55789.0,STARLINK-5815,PAYLOAD,2023-04-14 07:02:15,15.69913362,0.0003147,70.0001,38.4071,268.6821,91.4014,-9.4526e-06,-1.348e-05,0.0,0 STARLINK-5815,1 55789U 23028BA  23104.29323356 -.00001348  00000-0 -94526-5 0  9991,2 55789  70.0001  38.4071 0003147 268.6821  91.4014 15.69913362  7196,6737.282,91.725,361.267,357.027,0.0
55789.0,STARLINK-5815,PAYLOAD,2023-04-15 04:26:45,15.69932372,0.000307,69.9999,35.8989,283.5366,76.5487,1.048e-05,1.048e-05,0.0,0 STARLINK-5815,1 55789U 23028BA  23105.18525405  .00001048  00000-0  10480-4 0  9990,2 55789  69.9999  35.8989 0003070 283.5366  76.5487 15.69932372  7328,6737.227,91.724,361.161,357.024,0.0
